start=new Date('2021-12-03T00:00:00.000Z').valueOf();
sats=[{"RCS_SIZE":"LARGE","TLE_LINE2":"2 45183  53.0541 202.2750 0002235  75.7015 284.4221 15.06400002 99960","PERIAPSIS":"545.666","ELEMENT_SET_NO":"999","ARG_OF_PERICENTER":"75.7015","MEAN_ELEMENT_THEORY":"SGP4","LAUNCH_DATE":"2020-02-17","OBJECT_ID":"2020-012F","MEAN_MOTION":"15.06400002","RA_OF_ASC_NODE":"202.2750","REF_FRAME":"TEME","NORAD_CAT_ID":"45183","OBJECT_NAME":"STARLINK-1202","EPHEMERIS_TYPE":"0","APOAPSIS":"548.761","CENTER_NAME":"EARTH","FILE":"3230859","MEAN_MOTION_DDOT":"0.0000000000000","INCLINATION":"53.0541","TIME_SYSTEM":"UTC","TLE_LINE1":"1 45183U 20012F   21336.35063105  .00000767  00000-0  70376-4 0  9991","GP_ID":"190942466","BSTAR":"0.00007037600000","OBJECT_TYPE":"PAYLOAD","SEMIMAJOR_AXIS":"6925.349","MEAN_MOTION_DOT":"0.00000767","EPOCH":"2021-12-02T08:24:54.522720","SITE":"AFETR","REV_AT_EPOCH":"9996","CLASSIFICATION_TYPE":"U","ECCENTRICITY":"0.00022350","PERIOD":"95.592","COUNTRY_CODE":"US","DECAY_DATE":null,"MEAN_ANOMALY":"284.4221"},{"EPHEMERIS_TYPE":"0","APOAPSIS":"548.670","INCLINATION":"53.0531","MEAN_MOTION_DDOT":"0.0000000000000","TIME_SYSTEM":"UTC","CENTER_NAME":"EARTH","FILE":"3231081","MEAN_ELEMENT_THEORY":"SGP4","LAUNCH_DATE":"2020-02-17","RCS_SIZE":"LARGE","TLE_LINE2":"2 45184  53.0531 180.2262 0002080  81.5603 278.5621 15.06394711 99630","PERIAPSIS":"545.789","ARG_OF_PERICENTER":"81.5603","ELEMENT_SET_NO":"999","MEAN_MOTION":"15.06394711","RA_OF_ASC_NODE":"180.2262","REF_FRAME":"TEME","NORAD_CAT_ID":"45184","OBJECT_NAME":"STARLINK-1205","OBJECT_ID":"2020-012G","ECCENTRICITY":"0.00020800","CLASSIFICATION_TYPE":"U","MEAN_ANOMALY":"278.5621","PERIOD":"95.592","COUNTRY_CODE":"US","DECAY_DATE":null,"BSTAR":"0.00008559700000","TLE_LINE1":"1 45184U 20012G   21336.80584733  .00000993  00000-0  85597-4 0  9999","GP_ID":"190951645","SEMIMAJOR_AXIS":"6925.365","MEAN_MOTION_DOT":"0.00000993","EPOCH":"2021-12-02T19:20:25.209312","SITE":"AFETR","REV_AT_EPOCH":"9963","OBJECT_TYPE":"PAYLOAD"},{"TLE_LINE2":"2 45185  53.0539 201.1164 0001910  84.8824 275.2382 15.06398237 99944","RCS_SIZE":"LARGE","ELEMENT_SET_NO":"999","ARG_OF_PERICENTER":"84.8824","PERIAPSIS":"545.896","LAUNCH_DATE":"2020-02-17","MEAN_ELEMENT_THEORY":"SGP4","OBJECT_ID":"2020-012H","RA_OF_ASC_NODE":"201.1164","MEAN_MOTION":"15.06398237","OBJECT_NAME":"STARLINK-1216","NORAD_CAT_ID":"45185","REF_FRAME":"TEME","EPHEMERIS_TYPE":"0","APOAPSIS":"548.542","CENTER_NAME":"EARTH","FILE":"3230859","MEAN_MOTION_DDOT":"0.0000000000000","INCLINATION":"53.0539","TIME_SYSTEM":"UTC","GP_ID":"190942968","TLE_LINE1":"1 45185U 20012H   21336.60864805  .00000121  00000-0  27010-4 0  9998","BSTAR":"0.00002701000000","OBJECT_TYPE":"PAYLOAD","SITE":"AFETR","REV_AT_EPOCH":"9994","EPOCH":"2021-12-02T14:36:27.191520","SEMIMAJOR_AXIS":"6925.354","MEAN_MOTION_DOT":"0.00000121","CLASSIFICATION_TYPE":"U","ECCENTRICITY":"0.00019100","COUNTRY_CODE":"US","PERIOD":"95.592","DECAY_DATE":null,"MEAN_ANOMALY":"275.2382"},{"APOAPSIS":"548.627","EPHEMERIS_TYPE":"0","TIME_SYSTEM":"UTC","MEAN_MOTION_DDOT":"0.0000000000000","INCLINATION":"53.0540","FILE":"3231151","CENTER_NAME":"EARTH","MEAN_ELEMENT_THEORY":"SGP4","LAUNCH_DATE":"2020-02-17","PERIAPSIS":"545.781","ELEMENT_SET_NO":"999","ARG_OF_PERICENTER":"76.4314","RCS_SIZE":"LARGE","TLE_LINE2":"2 45186  53.0540 201.0503 0002055  76.4314 283.6904 15.06403188 99355","REF_FRAME":"TEME","NORAD_CAT_ID":"45186","OBJECT_NAME":"STARLINK-1224","MEAN_MOTION":"15.06403188","RA_OF_ASC_NODE":"201.0503","OBJECT_ID":"2020-012J","CLASSIFICATION_TYPE":"U","ECCENTRICITY":"0.00020550","MEAN_ANOMALY":"283.6904","DECAY_DATE":null,"PERIOD":"95.592","COUNTRY_CODE":"US","BSTAR":"0.00011546000000","TLE_LINE1":"1 45186U 20012J   21336.62338243  .00001439  00000-0  11546-3 0  9992","GP_ID":"190952898","MEAN_MOTION_DOT":"0.00001439","SEMIMAJOR_AXIS":"6925.339","EPOCH":"2021-12-02T14:57:40.241952","REV_AT_EPOCH":"9935","SITE":"AFETR","OBJECT_TYPE":"PAYLOAD"},{"TLE_LINE1":"1 45187U 20012K   21336.36169682  .00000293  00000-0  38599-4 0  9998","GP_ID":"190941966","BSTAR":"0.00003859900000","OBJECT_TYPE":"PAYLOAD","SEMIMAJOR_AXIS":"6925.371","EPOCH":"2021-12-02T08:40:50.605248","MEAN_MOTION_DOT":"0.00000293","SITE":"AFETR","REV_AT_EPOCH":"9995","CLASSIFICATION_TYPE":"U","ECCENTRICITY":"0.00020630","DECAY_DATE":null,"PERIOD":"95.593","COUNTRY_CODE":"US","MEAN_ANOMALY":"282.0427","PERIAPSIS":"545.808","ELEMENT_SET_NO":"999","ARG_OF_PERICENTER":"78.0793","RCS_SIZE":"LARGE","TLE_LINE2":"2 45187  53.0526 202.2225 0002063  78.0793 282.0427 15.06392549 99959","MEAN_ELEMENT_THEORY":"SGP4","LAUNCH_DATE":"2020-02-17","OBJECT_ID":"2020-012K","REF_FRAME":"TEME","NORAD_CAT_ID":"45187","OBJECT_NAME":"STARLINK-1225","MEAN_MOTION":"15.06392549","RA_OF_ASC_NODE":"202.2225","APOAPSIS":"548.665","EPHEMERIS_TYPE":"0","FILE":"3230859","CENTER_NAME":"EARTH","TIME_SYSTEM":"UTC","MEAN_MOTION_DDOT":"0.0000000000000","INCLINATION":"53.0526"},{"BSTAR":"0.00010677000000","GP_ID":"190952902","TLE_LINE1":"1 45188U 20012L   21336.78925707  .00001309  00000-0  10677-3 0  9998","REV_AT_EPOCH":"9959","SITE":"AFETR","SEMIMAJOR_AXIS":"6925.331","EPOCH":"2021-12-02T18:56:31.810848","MEAN_MOTION_DOT":"0.00001309","OBJECT_TYPE":"PAYLOAD","ECCENTRICITY":"0.00023990","CLASSIFICATION_TYPE":"U","MEAN_ANOMALY":"272.3773","COUNTRY_CODE":"US","PERIOD":"95.592","DECAY_DATE":null,"LAUNCH_DATE":"2020-02-17","MEAN_ELEMENT_THEORY":"SGP4","TLE_LINE2":"2 45188  53.0537 160.3132 0002399  87.7491 272.3773 15.06405740 99591","RCS_SIZE":"LARGE","ARG_OF_PERICENTER":"87.7491","ELEMENT_SET_NO":"999","PERIAPSIS":"545.535","MEAN_MOTION":"15.06405740","RA_OF_ASC_NODE":"160.3132","NORAD_CAT_ID":"45188","OBJECT_NAME":"STARLINK-1228","REF_FRAME":"TEME","OBJECT_ID":"2020-012L","EPHEMERIS_TYPE":"0","APOAPSIS":"548.857","INCLINATION":"53.0537","MEAN_MOTION_DDOT":"0.0000000000000","TIME_SYSTEM":"UTC","CENTER_NAME":"EARTH","FILE":"3231151"},{"CENTER_NAME":"EARTH","FILE":"3230859","INCLINATION":"53.0538","MEAN_MOTION_DDOT":"0.0000000000000","TIME_SYSTEM":"UTC","EPHEMERIS_TYPE":"0","APOAPSIS":"548.733","OBJECT_ID":"2020-012M","MEAN_MOTION":"15.06401917","RA_OF_ASC_NODE":"202.2110","NORAD_CAT_ID":"45189","OBJECT_NAME":"STARLINK-1230","REF_FRAME":"TEME","TLE_LINE2":"2 45189  53.0538 202.2110 0002203  74.6168 285.5065 15.06401917 97180","RCS_SIZE":"LARGE","ARG_OF_PERICENTER":"74.6168","ELEMENT_SET_NO":"999","PERIAPSIS":"545.682","MEAN_ELEMENT_THEORY":"SGP4","LAUNCH_DATE":"2020-02-17","COUNTRY_CODE":"US","PERIOD":"95.592","DECAY_DATE":null,"MEAN_ANOMALY":"285.5065","ECCENTRICITY":"0.00022030","CLASSIFICATION_TYPE":"U","OBJECT_TYPE":"PAYLOAD","SITE":"AFETR","REV_AT_EPOCH":"9718","SEMIMAJOR_AXIS":"6925.343","EPOCH":"2021-12-02T08:46:07.624992","MEAN_MOTION_DOT":"0.00001726","GP_ID":"190943469","TLE_LINE1":"1 45189U 20012M   21336.36536603  .00001726  00000-0  13472-3 0  9995","BSTAR":"0.00013472000000"},{"MEAN_ELEMENT_THEORY":"SGP4","LAUNCH_DATE":"2020-02-17","ELEMENT_SET_NO":"999","ARG_OF_PERICENTER":"85.6068","PERIAPSIS":"545.802","TLE_LINE2":"2 45190  53.0537 161.5345 0002047  85.6068 274.5155 15.06398040100449","RCS_SIZE":"LARGE","OBJECT_NAME":"STARLINK-1234","NORAD_CAT_ID":"45190","REF_FRAME":"TEME","MEAN_MOTION":"15.06398040","RA_OF_ASC_NODE":"161.5345","OBJECT_ID":"2020-012N","APOAPSIS":"548.637","EPHEMERIS_TYPE":"0","TIME_SYSTEM":"UTC","MEAN_MOTION_DDOT":"0.0000000000000","INCLINATION":"53.0537","FILE":"3230859","CENTER_NAME":"EARTH","BSTAR":"0.00007734700000","GP_ID":"190942217","TLE_LINE1":"1 45190U 20012N   21336.51651063  .00000870  00000-0  77347-4 0  9993","SITE":"AFETR","REV_AT_EPOCH":"10044","EPOCH":"2021-12-02T12:23:46.518432","SEMIMAJOR_AXIS":"6925.355","MEAN_MOTION_DOT":"0.00000870","OBJECT_TYPE":"PAYLOAD","ECCENTRICITY":"0.00020470","CLASSIFICATION_TYPE":"U","MEAN_ANOMALY":"274.5155","DECAY_DATE":null,"COUNTRY_CODE":"US","PERIOD":"95.592"},{"CENTER_NAME":"EARTH","FILE":"3230859","INCLINATION":"53.0524","MEAN_MOTION_DDOT":"0.0000000000000","TIME_SYSTEM":"UTC","EPHEMERIS_TYPE":"0","APOAPSIS":"548.813","OBJECT_ID":"2020-012P","RA_OF_ASC_NODE":"202.1816","MEAN_MOTION":"15.06396941","REF_FRAME":"TEME","NORAD_CAT_ID":"45191","OBJECT_NAME":"STARLINK-1236","RCS_SIZE":"LARGE","TLE_LINE2":"2 45191  53.0524 202.1816 0002296  71.1969 288.9269 15.06396941 97175","PERIAPSIS":"545.633","ELEMENT_SET_NO":"999","ARG_OF_PERICENTER":"71.1969","MEAN_ELEMENT_THEORY":"SGP4","LAUNCH_DATE":"2020-02-17","PERIOD":"95.592","COUNTRY_CODE":"US","DECAY_DATE":null,"MEAN_ANOMALY":"288.9269","ECCENTRICITY":"0.00022960","CLASSIFICATION_TYPE":"U","OBJECT_TYPE":"PAYLOAD","EPOCH":"2021-12-02T08:56:45.930048","SEMIMAJOR_AXIS":"6925.358","MEAN_MOTION_DOT":"-0.00000533","REV_AT_EPOCH":"9717","SITE":"AFETR","TLE_LINE1":"1 45191U 20012P   21336.37275382 -.00000533  00000-0 -16882-4 0  9999","GP_ID":"190942467","BSTAR":"-0.00001688200000"},{"SITE":"AFETR","REV_AT_EPOCH":"9991","SEMIMAJOR_AXIS":"6925.352","MEAN_MOTION_DOT":"0.00000550","EPOCH":"2021-12-02T00:21:53.974656","OBJECT_TYPE":"PAYLOAD","BSTAR":"0.00005582300000","GP_ID":"190943219","TLE_LINE1":"1 45192U 20012Q   21336.01520804  .00000550  00000-0  55823-4 0  9998","MEAN_ANOMALY":"282.0504","DECAY_DATE":null,"COUNTRY_CODE":"US","PERIOD":"95.592","CLASSIFICATION_TYPE":"U","ECCENTRICITY":"0.00020840","OBJECT_NAME":"STARLINK-1237","NORAD_CAT_ID":"45192","REF_FRAME":"TEME","RA_OF_ASC_NODE":"203.7859","MEAN_MOTION":"15.06398995","OBJECT_ID":"2020-012Q","LAUNCH_DATE":"2020-02-17","MEAN_ELEMENT_THEORY":"SGP4","ELEMENT_SET_NO":"999","ARG_OF_PERICENTER":"78.0719","PERIAPSIS":"545.773","TLE_LINE2":"2 45192  53.0528 203.7859 0002084  78.0719 282.0504 15.06398995 99910","RCS_SIZE":"LARGE","TIME_SYSTEM":"UTC","MEAN_MOTION_DDOT":"0.0000000000000","INCLINATION":"53.0528","FILE":"3230859","CENTER_NAME":"EARTH","APOAPSIS":"548.660","EPHEMERIS_TYPE":"0"}];
